{
    "links": {
        "self": "http://www.neowsapp.com/rest/v1/neo/3551477?api_key=iIulBulltgU6a56xZRHN4H3l9WmuAYTsLGpBGhQ2"
    },
    "id": "3551477",
    "neo_reference_id": "3551477",
    "name": "(2010 VN139)",
    "designation": "2010 VN139",
    "nasa_jpl_url": "http://ssd.jpl.nasa.gov/sbdb.cgi?sstr=3551477",
    "absolute_magnitude_h": 24.4,
    "estimated_diameter": {
        "kilometers": {
            "estimated_diameter_min": 0.0350392641,
            "estimated_diameter_max": 0.0783501764
        },
        "meters": {
            "estimated_diameter_min": 35.0392641108,
            "estimated_diameter_max": 78.3501764334
        },
        "miles": {
            "estimated_diameter_min": 0.0217723826,
            "estimated_diameter_max": 0.0486845275
        },
        "feet": {
            "estimated_diameter_min": 114.9582192654,
            "estimated_diameter_max": 257.0543928497
        }
    },
    "is_potentially_hazardous_asteroid": false,
    "close_approach_data": [
        {
            "close_approach_date": "1915-02-09",
            "close_approach_date_full": "1915-Feb-09 07:53",
            "epoch_date_close_approach": -1732291620000,
            "relative_velocity": {
                "kilometers_per_second": "5.405400475",
                "kilometers_per_hour": "19459.4417100563",
                "miles_per_hour": "12091.3403225625"
            },
            "miss_distance": {
                "astronomical": "1.7646758351",
                "lunar": "686.4588998539",
                "kilometers": "263991746.171431237",
                "miles": "164036864.5804435906"
            },
            "orbiting_body": "Juptr"
        },
        {
            "close_approach_date": "2010-11-18",
            "close_approach_date_full": "2010-Nov-18 18:39",
            "epoch_date_close_approach": 1290105540000,
            "relative_velocity": {
                "kilometers_per_second": "23.2994988003",
                "kilometers_per_hour": "83878.1956812578",
                "miles_per_hour": "52118.6488665016"
            },
            "miss_distance": {
                "astronomical": "0.0292566207",
                "lunar": "11.3808254523",
                "kilometers": "4376728.140117909",
                "miles": "2719572.7580047842"
            },
            "orbiting_body": "Earth"
        }
    ],
    "orbital_data": {
        "orbit_id": "7",
        "orbit_determination_date": "2017-04-06 08:55:43",
        "first_observation_date": "2010-11-14",
        "last_observation_date": "2010-11-16",
        "data_arc_in_days": 2,
        "observations_used": 21,
        "orbit_uncertainty": "9",
        "minimum_orbit_intersection": ".0257138",
        "jupiter_tisserand_invariant": "3.578",
        "epoch_osculation": "2455515.5",
        "eccentricity": ".7479733079734271",
        "semi_major_axis": "1.870268521760431",
        "inclination": "1.514529802289354",
        "ascending_node_longitude": "335.9765822595367",
        "orbital_period": "934.2312136341899",
        "perihelion_distance": ".47135758874071",
        "perihelion_argument": "182.3354683669462",
        "aphelion_distance": "3.269179454780153",
        "perihelion_time": "2455565.188104704680",
        "mean_anomaly": "340.8530078714658",
        "mean_motion": ".3853435795616251",
        "equinox": "J2000",
        "orbit_class": {
            "orbit_class_type": "APO",
            "orbit_class_description": "Near-Earth asteroid orbits which cross the Earth’s orbit similar to that of 1862 Apollo",
            "orbit_class_range": "a (semi-major axis) > 1.0 AU; q (perihelion) < 1.017 AU"
        }
    },
    "is_sentry_object": false
}